LUR-1                   
1 60506U 24149AQ  26068.79566301  .00009121  00000+0  32985-3 0  9998
2 60506  97.3790 148.4255 0002777 309.1571  50.9421 15.28658648 86785
STARLINK-34113          
1 64010U 25101S   26068.17653434  .00017990  00000+0  66188-3 0  9992
2 64010  43.0092   1.1306 0002648 277.4839  82.5712 15.27569228 46970
